ONEWEB-0199             
1 48234U 21031AA  25294.55606679  .00000052  00000+0  10596-3 0  9994
2 48234  87.9026 337.2271 0001769 101.0583 259.0745 13.14504377216917
ONEWEB-0203             
1 48235U 21031AB  25294.62268045 -.00000075  00000+0 -23668-3 0  9995
2 48235  87.9026 337.2151 0001968 104.7190 255.4158 13.14503053216930
ONEWEB-0197             
1 48236U 21031AC  25294.67328269 -.00000124  00000+0 -36829-3 0  9994
2 48236  87.9028 337.2033 0001679  87.0179 273.1143 13.14503745216851
ONEWEB-0194             
1 48237U 21031AD  25294.65281671  .00000238  00000+0  60765-3 0  9998
2 48237  87.9030 337.2237 0001724 103.7663 256.3658 13.14502869217026
ONEWEB-0193             
1 48238U 21031AE  25294.66864950 -.00000013  00000+0 -68373-4 0  9994
2 48238  87.9022 337.2174 0001572 109.2390 250.8910 13.14500372216977
ONEWEB-0191             
1 48239U 21031AF  25294.67975632 -.00000152  00000+0 -44343-3 0  9990
2 48239  87.9039 337.1993 0001804  97.2051 262.9284 13.14503861216831
ONEWEB-0195             
1 48240U 21031AG  25294.88513521  .00000243  00000+0  62024-3 0  9995
2 48240  87.9031 337.1546 0002263  96.8983 263.2404 13.14500792216847
ONEWEB-0201             
1 48241U 21031AH  25294.64502705  .00000215  00000+0  54616-3 0  9999
2 48241  87.9019 337.2497 0001996  88.1555 271.9803 13.14503381217040
